*******************************************************************************
Ephemeris / WWW_USER Mon Mar 24 07:36:15 2025 Pasadena, USA      / Horizons    
*******************************************************************************
Target body name: (2018 RG5)                      {source: JPL#6}
Center body name: Earth (399)                     {source: DE441}
Center-site name: Mauna Kea
*******************************************************************************
Start time      : A.D. 2018-Sep-03 04:45:00.0000 UT      
Stop  time      : A.D. 2018-Sep-03 15:57:00.0000 UT      
Step-size       : 1 minutes
*******************************************************************************
Target pole/equ : undefined
Target radii    : undefined                                                    
Center geodetic : 204.5278, 19.8260847, 4.21024   {E-lon(deg),Lat(deg),Alt(km)}
Center cylindric: 204.5278, 6006.35451, 2151.0229 {E-lon(deg),Dxy(km),Dz(km)}
Center pole/equ : ITRF93                          {East-longitude positive}
Center radii    : 6378.137, 6378.137, 6356.752 km {Equator_a, b, pole_c}       
Target primary  : Sun
Vis. interferer : MOON (R_eq= 1737.400) km        {source: DE441}
Rel. light bend : Sun                             {source: DE441}
Rel. lght bnd GM: 1.3271E+11 km^3/s^2                                          
Small-body perts: Yes                             {source: SB441-N16}
Atmos refraction: NO (AIRLESS)
RA format       : HMS
Time format     : CAL 
Calendar mode   : Mixed Julian/Gregorian
RTS-only print  : NO       
EOP file        : eop.250321.p250617                                           
EOP coverage    : DATA-BASED 1962-JAN-20 TO 2025-MAR-21. PREDICTS-> 2025-JUN-16
Units conversion: 1 au= 149597870.700 km, c= 299792.458 km/s, 1 day= 86400.0 s 
Table cut-offs 1: Elevation (-90.0deg=NO ),Airmass (>38.000=NO), Daylight (YES)
Table cut-offs 2: Solar elongation (  0.0,180.0=NO ),Local Hour Angle( 0.0=NO )
Table cut-offs 3: RA/DEC angular rate (     0.0=NO )                           
*******************************************************************************
Initial IAU76/J2000 heliocentric ecliptic osculating elements (au, days, deg.):
  EPOCH=  2458374.5 ! 2018-Sep-13.00 (TDB)         Residual RMS= .44286        
   EC= .3970272763955992   QR= .9476094655819058   TP= 2458410.7007282218      
   OM= 172.9777515025259   W=  220.286388004559    IN= 6.065188755768435       
  Equivalent ICRF heliocentric cartesian coordinates (au, au/d):
   X= 1.011373795361920E+00  Y=-1.657289676662098E-01  Z=-6.569093016663846E-02
  VX=-6.707749535245534E-04 VY= 1.878070382659777E-02 VZ= 5.901532854039199E-03
Asteroid physical parameters (km, seconds, rotational period in hours):        
   GM= n.a.                RAD= n.a.               ROTPER= n.a.                
   H= 26.76                G= .150                 B-V= n.a.                   
                           ALBEDO= n.a.            STYP= n.a.                  
*******************************************************************************
 Date__(UT)__HR:MN     R.A._________(ICRF)_________DEC
******************************************************
$$SOE
 2018-Sep-03 08:51     21 46 10.132026 +10 28 19.82441
 2018-Sep-03 08:52     21 46 10.210293 +10 28 20.13875
 2018-Sep-03 08:53     21 46 10.288549 +10 28 20.45267
 2018-Sep-03 08:54     21 46 10.366797 +10 28 20.76616
 2018-Sep-03 08:55     21 46 10.445035 +10 28 21.07923
 2018-Sep-03 08:56     21 46 10.523266 +10 28 21.39186
 2018-Sep-03 08:57     21 46 10.601489 +10 28 21.70407
 2018-Sep-03 08:58     21 46 10.679706 +10 28 22.01584
 2018-Sep-03 08:59     21 46 10.757918 +10 28 22.32719
 2018-Sep-03 09:00     21 46 10.836124 +10 28 22.63811
 2018-Sep-03 09:01     21 46 10.914325 +10 28 22.94860
 2018-Sep-03 09:02     21 46 10.992523 +10 28 23.25865
 2018-Sep-03 09:03     21 46 11.070718 +10 28 23.56828
 2018-Sep-03 09:04     21 46 11.148911 +10 28 23.87748
 2018-Sep-03 09:05     21 46 11.227102 +10 28 24.18624
 2018-Sep-03 09:06     21 46 11.305293 +10 28 24.49458
 2018-Sep-03 09:07     21 46 11.383483 +10 28 24.80248
 2018-Sep-03 09:08     21 46 11.461673 +10 28 25.10996
 2018-Sep-03 09:09     21 46 11.539865 +10 28 25.41700
 2018-Sep-03 09:10     21 46 11.618059 +10 28 25.72361
 2018-Sep-03 09:11     21 46 11.696256 +10 28 26.02979
 2018-Sep-03 09:12     21 46 11.774456 +10 28 26.33553
 2018-Sep-03 09:13     21 46 11.852660 +10 28 26.64084
 2018-Sep-03 09:14     21 46 11.930869 +10 28 26.94573
 2018-Sep-03 09:15     21 46 12.009083 +10 28 27.25017
 2018-Sep-03 09:16     21 46 12.087304 +10 28 27.55419
 2018-Sep-03 09:17     21 46 12.165531 +10 28 27.85777
 2018-Sep-03 09:18     21 46 12.243767 +10 28 28.16093
 2018-Sep-03 09:19     21 46 12.322010 +10 28 28.46364
 2018-Sep-03 09:20  t  21 46 12.400263 +10 28 28.76593
 2018-Sep-03 09:21     21 46 12.478525 +10 28 29.06778
 2018-Sep-03 09:22     21 46 12.556798 +10 28 29.36920
 2018-Sep-03 09:23     21 46 12.635083 +10 28 29.67018
 2018-Sep-03 09:24     21 46 12.713379 +10 28 29.97074
 2018-Sep-03 09:25     21 46 12.791688 +10 28 30.27085
 2018-Sep-03 09:26     21 46 12.870010 +10 28 30.57054
 2018-Sep-03 09:27     21 46 12.948346 +10 28 30.86979
 2018-Sep-03 09:28     21 46 13.026697 +10 28 31.16861
 2018-Sep-03 09:29     21 46 13.105063 +10 28 31.46700
 2018-Sep-03 09:30     21 46 13.183446 +10 28 31.76495
 2018-Sep-03 09:31     21 46 13.261845 +10 28 32.06246
 2018-Sep-03 09:32     21 46 13.340263 +10 28 32.35955
 2018-Sep-03 09:33     21 46 13.418698 +10 28 32.65620
 2018-Sep-03 09:34     21 46 13.497153 +10 28 32.95242
 2018-Sep-03 09:35     21 46 13.575627 +10 28 33.24820
 2018-Sep-03 09:36     21 46 13.654122 +10 28 33.54355
 2018-Sep-03 09:37     21 46 13.732638 +10 28 33.83847
 2018-Sep-03 09:38     21 46 13.811175 +10 28 34.13296
 2018-Sep-03 09:39     21 46 13.889736 +10 28 34.42701
 2018-Sep-03 09:40     21 46 13.968320 +10 28 34.72063
 2018-Sep-03 09:41     21 46 14.046928 +10 28 35.01381
 2018-Sep-03 09:42     21 46 14.125560 +10 28 35.30656
 2018-Sep-03 09:43     21 46 14.204218 +10 28 35.59888
 2018-Sep-03 09:44     21 46 14.282902 +10 28 35.89077
 2018-Sep-03 09:45     21 46 14.361613 +10 28 36.18223
 2018-Sep-03 09:46     21 46 14.440352 +10 28 36.47325
 2018-Sep-03 09:47     21 46 14.519119 +10 28 36.76384
 2018-Sep-03 09:48     21 46 14.597915 +10 28 37.05399
 2018-Sep-03 09:49     21 46 14.676741 +10 28 37.34372
 2018-Sep-03 09:50     21 46 14.755597 +10 28 37.63301
 2018-Sep-03 09:51  m  21 46 14.834484 +10 28 37.92188
 2018-Sep-03 09:52  m  21 46 14.913403 +10 28 38.21031
 2018-Sep-03 09:53  m  21 46 14.992355 +10 28 38.49831
 2018-Sep-03 09:54  m  21 46 15.071340 +10 28 38.78587
 2018-Sep-03 09:55  m  21 46 15.150359 +10 28 39.07301
 2018-Sep-03 09:56  m  21 46 15.229412 +10 28 39.35972
 2018-Sep-03 09:57  m  21 46 15.308501 +10 28 39.64599
 2018-Sep-03 09:58  m  21 46 15.387627 +10 28 39.93184
 2018-Sep-03 09:59  m  21 46 15.466788 +10 28 40.21725
 2018-Sep-03 10:00  m  21 46 15.545988 +10 28 40.50224
 2018-Sep-03 10:01  m  21 46 15.625226 +10 28 40.78679
 2018-Sep-03 10:02  m  21 46 15.704502 +10 28 41.07092
 2018-Sep-03 10:03  m  21 46 15.783818 +10 28 41.35462
 2018-Sep-03 10:04  m  21 46 15.863175 +10 28 41.63789
 2018-Sep-03 10:05  m  21 46 15.942573 +10 28 41.92073
 2018-Sep-03 10:06  m  21 46 16.022012 +10 28 42.20314
 2018-Sep-03 10:07  m  21 46 16.101494 +10 28 42.48513
 2018-Sep-03 10:08  m  21 46 16.181019 +10 28 42.76668
 2018-Sep-03 10:09  m  21 46 16.260587 +10 28 43.04781
 2018-Sep-03 10:10  m  21 46 16.340201 +10 28 43.32852
 2018-Sep-03 10:11  m  21 46 16.419859 +10 28 43.60879
 2018-Sep-03 10:12  m  21 46 16.499564 +10 28 43.88864
 2018-Sep-03 10:13  m  21 46 16.579315 +10 28 44.16807
 2018-Sep-03 10:14  m  21 46 16.659114 +10 28 44.44707
 2018-Sep-03 10:15  m  21 46 16.738961 +10 28 44.72564
 2018-Sep-03 10:16  m  21 46 16.818856 +10 28 45.00379
 2018-Sep-03 10:17  m  21 46 16.898801 +10 28 45.28151
 2018-Sep-03 10:18  m  21 46 16.978796 +10 28 45.55881
 2018-Sep-03 10:19  m  21 46 17.058842 +10 28 45.83569
 2018-Sep-03 10:20  m  21 46 17.138940 +10 28 46.11214
 2018-Sep-03 10:21  m  21 46 17.219089 +10 28 46.38818
 2018-Sep-03 10:22  m  21 46 17.299292 +10 28 46.66378
 2018-Sep-03 10:23  m  21 46 17.379548 +10 28 46.93897
 2018-Sep-03 10:24  m  21 46 17.459859 +10 28 47.21374
 2018-Sep-03 10:25  m  21 46 17.540225 +10 28 47.48808
 2018-Sep-03 10:26  m  21 46 17.620646 +10 28 47.76201
 2018-Sep-03 10:27  m  21 46 17.701124 +10 28 48.03551
 2018-Sep-03 10:28  m  21 46 17.781659 +10 28 48.30859
 2018-Sep-03 10:29  m  21 46 17.862251 +10 28 48.58126
 2018-Sep-03 10:30  m  21 46 17.942903 +10 28 48.85351
 2018-Sep-03 10:31  m  21 46 18.023613 +10 28 49.12533
 2018-Sep-03 10:32  m  21 46 18.104383 +10 28 49.39675
 2018-Sep-03 10:33  m  21 46 18.185214 +10 28 49.66774
 2018-Sep-03 10:34  m  21 46 18.266106 +10 28 49.93832
 2018-Sep-03 10:35  m  21 46 18.347060 +10 28 50.20848
 2018-Sep-03 10:36  m  21 46 18.428076 +10 28 50.47822
 2018-Sep-03 10:37  m  21 46 18.509156 +10 28 50.74756
 2018-Sep-03 10:38  m  21 46 18.590299 +10 28 51.01647
 2018-Sep-03 10:39  m  21 46 18.671508 +10 28 51.28498
 2018-Sep-03 10:40  m  21 46 18.752781 +10 28 51.55306
 2018-Sep-03 10:41  m  21 46 18.834121 +10 28 51.82074
 2018-Sep-03 10:42  m  21 46 18.915527 +10 28 52.08801
 2018-Sep-03 10:43  m  21 46 18.997001 +10 28 52.35486
 2018-Sep-03 10:44  m  21 46 19.078543 +10 28 52.62130
 2018-Sep-03 10:45  m  21 46 19.160153 +10 28 52.88734
 2018-Sep-03 10:46  m  21 46 19.241833 +10 28 53.15296
 2018-Sep-03 10:47  m  21 46 19.323583 +10 28 53.41817
 2018-Sep-03 10:48  m  21 46 19.405404 +10 28 53.68298
 2018-Sep-03 10:49  m  21 46 19.487296 +10 28 53.94738
 2018-Sep-03 10:50  m  21 46 19.569260 +10 28 54.21137
 2018-Sep-03 10:51  m  21 46 19.651297 +10 28 54.47495
 2018-Sep-03 10:52  m  21 46 19.733407 +10 28 54.73813
 2018-Sep-03 10:53  m  21 46 19.815591 +10 28 55.00090
